[{"OBJECT_NAME":"AETHER-9","OBJECT_ID":"2026-004T","EPOCH":"2026-03-09T23:31:56.232480","MEAN_MOTION":14.87919538,"ECCENTRICITY":0.00064611,"INCLINATION":97.8002,"RA_OF_ASC_NODE":69.182,"ARG_OF_PERICENTER":98.1292,"MEAN_ANOMALY":262.0657,"EPHEMERIS_TYPE":0,"CLASSIFICATION_TYPE":"U","NORAD_CAT_ID":67380,"ELEMENT_SET_NO":999,"REV_AT_EPOCH":853,"BSTAR":0.00014996524,"MEAN_MOTION_DOT":1.32e-5,"MEAN_MOTION_DDOT":0},{"OBJECT_NAME":"CZ-2D R\/B","OBJECT_ID":"2025-222C","EPOCH":"2026-03-09T11:30:40.430304","MEAN_MOTION":15.00214245,"ECCENTRICITY":0.0055472,"INCLINATION":34.9016,"RA_OF_ASC_NODE":128.5538,"ARG_OF_PERICENTER":301.6169,"MEAN_ANOMALY":57.9132,"EPHEMERIS_TYPE":0,"CLASSIFICATION_TYPE":"U","NORAD_CAT_ID":65853,"ELEMENT_SET_NO":999,"REV_AT_EPOCH":2424,"BSTAR":0.00024152549,"MEAN_MOTION_DOT":3.158e-5,"MEAN_MOTION_DDOT":0}]
